METEOSAT-5 (MOP-2)      
1 21140U 91015B   08203.53168803 -.00000048  00000-0  10000-3 0  3992
2 21140  10.1824  52.5607 0005552 121.7742 238.3590  0.98450751 65822
METEOSAT-6 (MOP-3)      
1 22912U 93073B   08205.02624537 -.00000012  00000-0  10000-3 0  6100
2 22912   7.5864  63.7305 0000405  68.9450 245.2048  1.00273404 52163
HIMAWARI-5 (GMS-5)      
1 23522U 95011B   08202.54097390 -.00000182  00000-0  10000-3 0  8523
2 23522   6.7162  66.7387 0007116 330.1319  29.8640  0.99404832 48640
GOES 10                 
1 24786U 97019A   08203.36770079 -.00000278  00000-0  10000-3 0  4802
2 24786   2.7996  78.8912 0002006  93.4838 199.9570  1.00269821 41183
ORBVIEW 2 (SEASTAR)     
1 24883U 97037A   08205.24275119  .00000023  00000-0  14726-4 0  4014
2 24883  98.3091 321.7901 0002068 122.0617 238.0661 14.59948657584444
METEOSAT-7              
1 24932U 97049B   08205.65830752  .00000075  00000-0  10000-3 0  4058
2 24932   4.3812  73.6310 0000464 318.5415 203.8565  1.00272413 39899
NOAA 15                 
1 25338U 98030A   08205.31497641  .00000000  00000-0  18559-4 0  5539
2 25338  98.5553 196.2567 0009721 300.7154  59.3087 14.24715660529940
GOES 11                 
1 26352U 00022A   08205.34479869  .00000098  00000-0  00000+0 0  8969
2 26352   0.3933 263.3244 0004881 291.7812  95.1334  1.00278562 30103
FENGYUN 2B              
1 26382U 00032A   08203.39860853 -.00000077  00000-0  10000-3 0   711
2 26382   3.5089  76.6447 0003430 183.3557 176.6140  1.00105490 29550
NOAA 16                 
1 26536U 00055A   08205.33364844 -.00000086  00000-0 -21186-4 0   238
2 26536  99.1574 195.3044 0011342 121.0812 239.1494 14.12489485403871
GOES 12                 
1 26871U 01031A   08205.39064221 -.00000241  00000-0  00000+0 0  6434
2 26871   0.0841  99.3748 0003460 353.6706 274.2948  1.00269320 25716
FENGYUN 1D              
1 27431U 02024B   08205.06985491  .00000030  00000-0  41354-4 0  1897
2 27431  98.6033 202.9601 0014370 268.7165  91.2377 14.09270483318456
NOAA 17                 
1 27453U 02032A   08205.30929605 -.00000067  00000-0 -10804-4 0   181
2 27453  98.5315 268.8870 0011816   8.3617 351.7788 14.23988964315940
METEOSAT-8 (MSG-1)      
1 27509U 02040B   08204.92402744  .00000073  00000-0  00000+0 0  8409
2 27509   0.6084  37.0966 0000969  28.8010 217.1431  1.00278390 21694
KALPANA-1 (METSAT 1)    
1 27525U 02043A   08205.72875839 -.00000068  00000-0  10000-3 0  4954
2 27525   0.0893  90.1859 0008118   1.0577 186.9261  1.00272244 21506
INSAT-3A                
1 27714U 03013A   08202.75335426 -.00000251  00000-0  10000-3 0  1787
2 27714   0.0774  89.7125 0000903  90.9581 122.9644  1.00271306 19375
FENGYUN 2C              
1 28451U 04042A   08205.58118478 -.00000321  00000-0  00000+0 0   804
2 28451   0.5689  78.4157 0001167  64.8545 112.1865  1.00276931 13758
HIMAWARI 6 (MTSAT-1R)   
1 28622U 05006A   08204.26249928 -.00000272  00000-0  10000-3 0  7148
2 28622   0.0387 130.0570 0001097 200.7083 204.1792  1.00271232 12447
NOAA 18                 
1 28654U 05018A   08205.35481944 -.00000182  00000-0 -76686-4 0  5145
2 28654  98.8688 145.8428 0013550 208.6486 151.3948 14.11178046163570
METEOSAT-9 (MSG-2)      
1 28912U 05049B   08206.05575609  .00000005  00000-0  00000+0 0  3935
2 28912   0.4405 227.3853 0000811 218.3532 236.1450  1.00274801  9554
MTSAT-2                 
1 28937U 06004A   08204.65123259 -.00000234  00000-0  10000-3 0  4423
2 28937   0.0489 255.5584 0002776 192.0491 232.5990  1.00270736  8929
FORMOSAT 3A             
1 29047U 06011A   08205.04645509  .00000206  00000-0  10000-3 0  7257
2 29047  71.9835 331.1358 0051845 349.5142  10.4887 14.27066541120773
FORMOSAT 3B             
1 29048U 06011B   08205.42981904  .00000389  00000-0  17471-3 0  7602
2 29048  71.9695 246.2035 0046322 298.0730  61.5679 14.27051507123305
FORMOSAT 3C             
1 29049U 06011C   08205.51800650  .00000361  00000-0  16364-3 0  7016
2 29049  72.0207  33.2315 0036308   3.6999 356.4376 14.27067183119090
FORMOSAT 3D             
1 29050U 06011D   08205.60943800  .00001096  00000-0  26646-3 0  9802
2 29050  72.0090 241.7186 0054235 274.8984  84.5892 14.53924841123481
FORMOSAT 3E             
1 29051U 06011E   08205.33880377  .00000372  00000-0  16522-3 0  7617
2 29051  72.0104 303.1775 0070792 233.0750 126.3863 14.27062515121651
FORMOSAT 3F             
1 29052U 06011F   08205.80731947  .00000359  00000-0  16273-3 0  7807
2 29052  72.0380   3.1496 0041791 334.0675  25.8341 14.27075070120024
GOES 13                 
1 29155U 06018A   08204.56854861 -.00000079  00000-0  10000-3 0  4552
2 29155   0.4070  82.7813 0000935  83.0642 234.2826  1.00271729  7951
METOP-A                 
1 29499U 06044A   08206.02996305 -.00000046  00000-0 -74263-6 0  5533
2 29499  98.7202 264.6651 0001169  89.5891 270.5409 14.21482078 91396
FENGYUN 2D              
1 29640U 06053A   08204.97149814 -.00000193  00000-0  10000-3 0  4333
2 29640   1.1087 260.8491 0000851 316.9696 159.8815  1.00274025  6008
FENGYUN 3A              
1 32958U 08026A   08205.74479865  .00000166  00000-0  10000-3 0   637
2 32958  98.8110 273.6820 0001137  63.3370 296.7901 14.19566597  8182
